
    {
        "ARG_OF_PERICENTER": 158.2163,
        "BSTAR": 0.00036796243,
        "CLASSIFICATION_TYPE": "U",
        "ECCENTRICITY": 0.00077778,
        "ELEMENT_SET_NO": 999,
        "EPHEMERIS_TYPE": 0,
        "EPOCH": "2026-05-21T13:48:02.786400",
        "INCLINATION": 97.5086,
        "MEAN_ANOMALY": 201.9414,
        "MEAN_MOTION": 15.374807,
        "MEAN_MOTION_DDOT": 0,
        "MEAN_MOTION_DOT": 0.00013462,
        "NORAD_CAT_ID": 57199,
        "OBJECT_ID": "2023-091AK",
        "OBJECT_NAME": "SITRO-AIS 10 (BURDAEV)",
        "RA_OF_ASC_NODE": 211.5026,
        "REV_AT_EPOCH": 16067
    },
    {
        "ARG_OF_PERICENTER": 158.5847,
        "BSTAR": 0.00036389345,
        "CLASSIFICATION_TYPE": "U",
        "ECCENTRICITY": 0.00079738,
        "ELEMENT_SET_NO": 999,
        "EPHEMERIS_TYPE": 0,
        "EPOCH": "2026-05-21T14:14:19.104288",
        "INCLINATION": 97.5084,
        "MEAN_ANOMALY": 201.5732,
        "MEAN_MOTION": 15.37023624,
        "MEAN_MOTION_DDOT": 0,
        "MEAN_MOTION_DOT": 0.00013117,
        "NORAD_CAT_ID": 57201,
        "OBJECT_ID": "2023-091AM",
        "OBJECT_NAME": "SITRO-AIS 9 (SHCHUKIN)",
        "RA_OF_ASC_NODE": 211.2714,
        "REV_AT_EPOCH": 16066
    },
    {
        "ARG_OF_PERICENTER": 153.296,
        "BSTAR": 0.00035921946,
        "CLASSIFICATION_TYPE": "U",
        "ECCENTRICITY": 0.00077344,
        "ELEMENT_SET_NO": 999,
        "EPHEMERIS_TYPE": 0,
        "EPOCH": "2026-05-21T14:07:58.658304",
        "INCLINATION": 97.5096,
        "MEAN_ANOMALY": 206.8684,
        "MEAN_MOTION": 15.37309926,
        "MEAN_MOTION_DDOT": 0,
        "MEAN_MOTION_DOT": 0.00013067,
        "NORAD_CAT_ID": 57204,
        "OBJECT_ID": "2023-091AQ",
        "OBJECT_NAME": "SITRO-AIS 12 (SMIRENNIY)",
        "RA_OF_ASC_NODE": 211.7174,
        "REV_AT_EPOCH": 16068
    },
    {
        "ARG_OF_PERICENTER": 153.3016,
        "BSTAR": 0.0003768705,
        "CLASSIFICATION_TYPE": "U",
        "ECCENTRICITY": 0.00076495,
        "ELEMENT_SET_NO": 999,
        "EPHEMERIS_TYPE": 0,
        "EPOCH": "2026-05-21T13:03:51.478848",
        "INCLINATION": 97.5095,
        "MEAN_ANOMALY": 206.8624,
        "MEAN_MOTION": 15.37706302,
        "MEAN_MOTION_DDOT": 0,
        "MEAN_MOTION_DOT": 0.00013892,
        "NORAD_CAT_ID": 57208,
        "OBJECT_ID": "2023-091AU",
        "OBJECT_NAME": "SITRO-AIS 11 (SHEFFER)",
        "RA_OF_ASC_NODE": 211.9022,
        "REV_AT_EPOCH": 16069
    },
    {
        "ARG_OF_PERICENTER": 61.4121,
        "BSTAR": 0.00021121633,
        "CLASSIFICATION_TYPE": "U",
        "ECCENTRICITY": 0.01470642,
        "ELEMENT_SET_NO": 999,
        "EPHEMERIS_TYPE": 0,
        "EPOCH": "2026-05-21T15:24:38.805984",
        "INCLINATION": 95.3915,
        "MEAN_ANOMALY": 300.1811,
        "MEAN_MOTION": 14.93315114,
        "MEAN_MOTION_DDOT": 0,
        "MEAN_MOTION_DOT": 2.705e-05,
        "NORAD_CAT_ID": 59066,
        "OBJECT_ID": "2024-039R",
        "OBJECT_NAME": "SITRO-AIS 25",
        "RA_OF_ASC_NODE": 216.8534,
        "REV_AT_EPOCH": 12076
    },
    {
        "ARG_OF_PERICENTER": 61.9507,
        "BSTAR": 0.00020918836,
        "CLASSIFICATION_TYPE": "U",
        "ECCENTRICITY": 0.01474073,
        "ELEMENT_SET_NO": 999,
        "EPHEMERIS_TYPE": 0,
        "EPOCH": "2026-05-21T15:21:27.474912",
        "INCLINATION": 95.3916,
        "MEAN_ANOMALY": 299.6536,
        "MEAN_MOTION": 14.9311666,
        "MEAN_MOTION_DDOT": 0,
        "MEAN_MOTION_DOT": 2.666e-05,
        "NORAD_CAT_ID": 59067,
        "OBJECT_ID": "2024-039S",
        "OBJECT_NAME": "SITRO-AIS 26",
        "RA_OF_ASC_NODE": 216.755,
        "REV_AT_EPOCH": 12075
    },
    {
        "ARG_OF_PERICENTER": 60.7451,
        "BSTAR": 0.00026672478,
        "CLASSIFICATION_TYPE": "U",
        "ECCENTRICITY": 0.01464067,
        "ELEMENT_SET_NO": 999,
        "EPHEMERIS_TYPE": 0,
        "EPOCH": "2026-05-21T14:49:15.970944",
        "INCLINATION": 95.3917,
        "MEAN_ANOMALY": 300.8321,
        "MEAN_MOTION": 14.9352792,
        "MEAN_MOTION_DDOT": 0,
        "MEAN_MOTION_DOT": 3.438e-05,
        "NORAD_CAT_ID": 59068,
        "OBJECT_ID": "2024-039T",
        "OBJECT_NAME": "SITRO-AIS 27",
        "RA_OF_ASC_NODE": 216.9991,
        "REV_AT_EPOCH": 12077
    },
    {
        "ARG_OF_PERICENTER": 60.6367,
        "BSTAR": 0.00023178565,
        "CLASSIFICATION_TYPE": "U",
        "ECCENTRICITY": 0.01461908,
        "ELEMENT_SET_NO": 999,
        "EPHEMERIS_TYPE": 0,
        "EPOCH": "2026-05-21T14:17:39.268896",
        "INCLINATION": 95.3915,
        "MEAN_ANOMALY": 300.9367,
        "MEAN_MOTION": 14.93562181,
        "MEAN_MOTION_DDOT": 0,
        "MEAN_MOTION_DOT": 2.984e-05,
        "NORAD_CAT_ID": 59071,
        "OBJECT_ID": "2024-039U",
        "OBJECT_NAME": "SITRO-AIS 28",
        "RA_OF_ASC_NODE": 217.03,
        "REV_AT_EPOCH": 12077
    },
    {
        "ARG_OF_PERICENTER": 129.1852,
        "BSTAR": 0.00022017193,
        "CLASSIFICATION_TYPE": "U",
        "ECCENTRICITY": 0.0044336,
        "ELEMENT_SET_NO": 999,
        "EPHEMERIS_TYPE": 0,
        "EPOCH": "2026-05-21T11:19:10.654176",
        "INCLINATION": 61.9903,
        "MEAN_ANOMALY": 231.3192,
        "MEAN_MOTION": 15.0639127,
        "MEAN_MOTION_DDOT": 0,
        "MEAN_MOTION_DOT": 3.11e-05,
        "NORAD_CAT_ID": 60237,
        "OBJECT_ID": "2024-128C",
        "OBJECT_NAME": "GRBBETA",
        "RA_OF_ASC_NODE": 309.9817,
        "REV_AT_EPOCH": 10224
    },
    {
        "ARG_OF_PERICENTER": 127.8545,
        "BSTAR": 0.00013410325,
        "CLASSIFICATION_TYPE": "U",
        "ECCENTRICITY": 0.00480568,
        "ELEMENT_SET_NO": 999,
        "EPHEMERIS_TYPE": 0,
        "EPOCH": "2026-05-21T00:56:39.498720",
        "INCLINATION": 61.9943,
        "MEAN_ANOMALY": 232.6909,
        "MEAN_MOTION": 15.0261679,
        "MEAN_MOTION_DDOT": 0,
        "MEAN_MOTION_DOT": 1.622e-05,
        "NORAD_CAT_ID": 60240,
        "OBJECT_ID": "2024-128F",
        "OBJECT_NAME": "OOV-CUBE (TUBSAT-30)",
        "RA_OF_ASC_NODE": 320.2264,
        "REV_AT_EPOCH": 10203
    },
    {
        "ARG_OF_PERICENTER": 122.8595,
        "BSTAR": 0.00037286293,
        "CLASSIFICATION_TYPE": "U",
        "ECCENTRICITY": 0.00451902,
        "ELEMENT_SET_NO": 999,
        "EPHEMERIS_TYPE": 0,
        "EPOCH": "2026-05-21T11:22:23.564640",
        "INCLINATION": 61.987,
        "MEAN_ANOMALY": 237.6862,
        "MEAN_MOTION": 15.11203799,
        "MEAN_MOTION_DDOT": 0,
        "MEAN_MOTION_DOT": 6.224e-05,
        "NORAD_CAT_ID": 60243,
        "OBJECT_ID": "2024-128J",
        "OBJECT_NAME": "ROBUSTA-3A (MEDITERRANEE)",
        "RA_OF_ASC_NODE": 302.6815,
        "REV_AT_EPOCH": 10238
    },
    {
        "ARG_OF_PERICENTER": 176.3157,
        "BSTAR": 0.00047395813,
        "CLASSIFICATION_TYPE": "U",
        "ECCENTRICITY": 0.00058604,
        "ELEMENT_SET_NO": 999,
        "EPHEMERIS_TYPE": 0,
        "EPOCH": "2026-05-20T19:53:01.858272",
        "INCLINATION": 44.976,
        "MEAN_ANOMALY": 183.7776,
        "MEAN_MOTION": 15.44503182,
        "MEAN_MOTION_DDOT": 0,
        "MEAN_MOTION_DOT": 0.00022182,
        "NORAD_CAT_ID": 62391,
        "OBJECT_ID": "2024-247Q",
        "OBJECT_NAME": "LASARSAT",
        "RA_OF_ASC_NODE": 55.7382,
        "REV_AT_EPOCH": 7908
    }